ONEWEB-0164             
1 48063U 21025X   26157.73599366  .00000168  00000+0  42509-3 0  9997
2 48063  87.8953 322.3016 0001784  92.3938 267.7396 13.13470650252216
ONEWEB-0167             
1 48064U 21025Y   26157.68774218  .00000230  00000+0  59561-3 0  9999
2 48064  87.8945 322.3219 0001324 113.6042 246.5226 13.13470952252195
ONEWEB-0166             
1 48065U 21025Z   26157.71059522 -.00000283  00000+0 -80912-3 0  9992
2 48065  87.8956 322.2878 0001975  96.9944 263.1410 13.13471177252273
ONEWEB-0151             
1 48066U 21025AA  26157.71228764 -.00000244  00000+0 -70323-3 0  9991
2 48066  87.8946 322.3049 0001686  96.0575 264.0746 13.13469669252213
ONEWEB-0170             
1 48067U 21025AB  26157.72075554 -.00000287  00000+0 -82135-3 0  9991
2 48067  87.8946 322.3051 0001423  85.6596 274.4696 13.13469120252179
ONEWEB-0168             
1 48068U 21025AC  26157.70551942 -.00000164  00000+0 -48468-3 0  9995
2 48068  87.8954 322.3073 0001863 100.1111 260.0228 13.13469357252182
ONEWEB-0173             
1 48069U 21025AD  26157.69705925  .00000036  00000+0  62756-4 0  9999
2 48069  87.8950 322.3114 0001711 107.0129 253.1187 13.13469458252428
ONEWEB-0171             
1 48070U 21025AE  26157.73430404 -.00000444  00000+0 -12506-2 0  9994
2 48070  87.8979 322.3127 0001527  94.5331 265.5973 13.13473042252249
ONEWEB-0172             
1 48071U 21025AF  26157.71398278 -.00000232  00000+0 -67048-3 0  9992
2 48071  87.8951 322.3051 0001673  98.5629 261.5690 13.13470661253137
ONEWEB-0174             
1 48072U 21025AG  26157.69537556  .00000063  00000+0  13644-3 0  9997
2 48072  87.8951 322.3090 0001944  96.7603 263.3747 13.13469761252450
ONEWEB-0175             
1 48073U 21025AH  26157.49730806 -.00000097  00000+0 -30012-3 0  9996
2 48073  87.8954 322.3322 0001454  94.5026 265.6270 13.13470585252084
ONEWEB-0177             
1 48074U 21025AJ  26157.73769028  .00000157  00000+0  39581-3 0  9997
2 48074  87.8948 322.3031 0001934 100.7270 259.4077 13.13470815252306
ONEWEB-0178             
1 48075U 21025AK  26157.75644035  .00000293  00000+0  76673-3 0  9994
2 48075  87.8940 322.3133 0001539 100.0831 260.0472 13.13471365252352
ONEWEB-0108             
1 48076U 21025AL  26157.71567813 -.00000279  00000+0 -79927-3 0  9990
2 48076  87.8957 322.2980 0001984  89.9990 270.1366 13.13469527252277
ONEWEB-0169             
1 48077U 21025AM  26157.74784701  .00000319  00000+0  83724-3 0  9994
2 48077  87.8949 322.3009 0001910  96.1972 263.9374 13.13470048250931
ONEWEB-0176             
1 48210U 21031A   26157.67474105  .00000209  00000+0  52871-3 0  9993
2 48210  87.8947 291.7948 0001725 101.1405 258.9918 13.14502211246933
